CZ-2C R/B               
1 28480U 04046B   25334.75804980  .00000205  00000+0  90931-4 0  9996
2 28480  98.1979 250.8813 0140755  87.4536 274.2750 14.26932182 94399
ARIANE 5 R/B            
1 28499U 04049H   25334.92825355  .00001051  00000+0  12313-3 0  9994
2 28499  98.2518 134.7865 0083684 311.7483  47.6596 14.84968604131133
CZ-2D R/B               
1 28738U 05024B   25334.99302766  .00026860  00000+0  44146-3 0  9991
2 28738  97.3634 342.1409 0007256  42.2647 317.9163 15.52336855124437
ALOS (DAICHI)           
1 28931U 06002A   25334.84722193  .00001623  00000+0  28256-3 0  9991
2 28931  98.1074 286.4200 0000726  96.2978 263.8310 14.69427073 58966
H-2A R/B                
1 28932U 06002B   25334.95793134  .00010919  00000+0  58037-3 0  9995
2 28932  98.2305 108.7476 0054459 216.3667 143.3858 15.14192529 79483
RESURS-DK 1             
1 29228U 06021A   25334.92306757  .00003564  00000+0  21286-3 0  9997
2 29228  69.9322 132.3719 0007765 267.1416  92.8861 15.12051481 72599
CZ-4B R/B               
1 29507U 06046C   25334.62238634  .00005076  00000+0  26680-3 0  9992
2 29507  97.5758  14.7941 0032643 249.8355 109.9364 15.15679313 45031
CZ-2C R/B               
1 31114U 07010B   25334.95308785  .00000167  00000+0  95832-4 0  9994
2 31114  98.3971  88.1974 0058359 220.4704 139.2126 14.20201636965701
COSMO-SKYMED 1          
1 31598U 07023A   25335.01382403  .00004530  00000+0  41299-3 0  9996
2 31598  97.8849 160.3369 0001566  84.8413 275.2986 14.95630362   151
COSMOS 2428             
1 31792U 07029A   25334.63192054 -.00000065  00000+0 -89919-5 0  9990
2 31792  70.9374  51.3006 0003002  42.7382 317.3972 14.12886493950103
SL-16 R/B               
1 31793U 07029B   25334.51910439 -.00000152  00000+0 -54158-4 0  9996
2 31793  70.9773  20.8469 0002451 266.1146 194.3041 14.14816720951343
KORONAS-FOTON           
1 33504U 09003A   25334.61143642  .00013207  00000+0  32076-3 0  9994
2 33504  82.4327  18.6689 0012455 147.7285 212.4726 15.40787287930478
CZ-2C R/B               
1 37731U 11030B   25334.90551220  .00002070  00000+0  26912-3 0  9998
2 37731  97.8391 289.2760 0051909 313.1630 114.5671 14.80835152775477
H-2A R/B                
1 38341U 12025E   25334.85512497  .00003115  00000+0  29081-3 0  9999
2 38341  98.4575 289.1714 0043855 276.6061  83.0166 14.94320781733459
SHIJIAN-16 (SJ-16)      
1 39358U 13057A   25335.00160274  .00002245  00000+0  22398-3 0  9991
2 39358  74.9740  11.8641 0017264 347.5895  12.4865 14.91939087656782
SL-4 R/B                
1 39679U 14021B   25334.77810615  .00014979  00000+0  35983-3 0  9994
2 39679  51.6062  98.7069 0102871 103.1949 258.0535 15.36207421641056
ALOS-2                  
1 39766U 14029A   25334.97486464  .00002190  00000+0  29989-3 0  9993
2 39766  97.9232  69.9884 0001366  99.2620 260.8746 14.79500510622277
YAOGAN-29               
1 41038U 15069A   25335.01100965  .00000540  00000+0  73367-4 0  9995
2 41038  98.0230 358.1445 0000943  13.1521 346.9717 14.82861369541251
ASTRO-H (HITOMI)        
1 41337U 16012A   25334.98450086  .00003625  00000+0  21644-3 0  9990
2 41337  31.0002 273.1490 0009481  58.9888 301.1681 15.09233805537304
HXMT (HUIYAN)           
1 42758U 17034A   25334.99841071  .00005807  00000+0  30401-3 0  9997
2 42758  43.0135 204.7781 0033265 328.7724  31.1147 15.16094917467552
CZ-2C R/B               
1 43521U 18054D   25334.16482381  .00108571  00000+0  81451-3 0  9996
2 43521  35.1342 265.9782 0018773  12.2682 347.8505 15.71049687413076
SAOCOM 1A               
1 43641U 18076A   25334.99258334  .00000566  00000+0  77585-4 0  9992
2 43641  97.8848 159.5857 0001577  87.3887 272.7507 14.82156367386746
H-2A R/B                
1 43682U 18084L   25334.97449343  .00018678  00000+0  51574-3 0  9998
2 43682  98.8785 166.6203 0028256   6.7337 353.4277 15.36744792390598
SAOCOM 1B               
1 46265U 20059A   25335.02381021  .00000578  00000+0  79130-4 0  9997
2 46265  97.8844 158.7177 0001357  90.4674 269.6695 14.82165156284137
CSS (TIANHE)            
1 48274U 21035A   25334.73382893  .00016075  00000+0  20845-3 0  9996
2 48274  41.4667  89.5523 0010490 301.4921  58.4891 15.58437522262154
COSMOS 2550             
1 48865U 21056A   25333.81495336 -.00000143  00000+0  14678-5 0  9999
2 48865  67.1430 343.0291 0008393 269.4513  90.5680 15.33825458248140
CZ-2C R/B               
1 52794U 22058K   25334.73671634  .00029435  00000+0  54299-3 0  9992
2 52794  50.1898 104.7222 0046850 148.8667 211.5091 15.47610921194774
CZ-2C R/B               
1 54039U 22132E   25334.95340727  .00030980  00000+0  47866-3 0  9998
2 54039  97.2949 330.9368 0023965  95.4034 264.9954 15.53715452175005
GSLV R/B                
1 54149U 22138AN  25334.88309425  .00002773  00000+0  24338-3 0  9996
2 54149  87.3840 199.4435 0022919 144.9581 215.3164 14.96032148169157
XRISM                   
1 57800U 23137A   25335.00383751  .00006145  00000+0  36142-3 0  9995
2 57800  31.0006 201.3095 0007603 126.2801 233.8540 15.10172860122852
ACS3                    
1 59588U 24077B   25334.83428363  .00037723  00000+0  32724-1 0  9999
2 59588  97.2792 293.0959 0075929   1.8449 358.2978 13.84599297 80498
